[{"OBJECT_NAME":"LAPAN-A3","OBJECT_ID":"2016-040E","EPOCH":"2026-03-09T23:01:57.724896","MEAN_MOTION":15.3238951,"ECCENTRICITY":0.00109839,"INCLINATION":97.1488,"RA_OF_ASC_NODE":68.4254,"ARG_OF_PERICENTER":22.062,"MEAN_ANOMALY":338.1093,"EPHEMERIS_TYPE":0,"CLASSIFICATION_TYPE":"U","NORAD_CAT_ID":41603,"ELEMENT_SET_NO":999,"REV_AT_EPOCH":53961,"BSTAR":0.00017567445,"MEAN_MOTION_DOT":5.428e-5,"MEAN_MOTION_DDOT":0},{"OBJECT_NAME":"STARLINK-31955","OBJECT_ID":"2024-106T","EPOCH":"2026-03-09T02:13:08.024736","MEAN_MOTION":15.27582623,"ECCENTRICITY":0.00015786,"INCLINATION":43.0036,"RA_OF_ASC_NODE":335.711,"ARG_OF_PERICENTER":261.2872,"MEAN_ANOMALY":98.7801,"EPHEMERIS_TYPE":0,"CLASSIFICATION_TYPE":"U","NORAD_CAT_ID":59939,"ELEMENT_SET_NO":999,"REV_AT_EPOCH":10047,"BSTAR":-3.5367692e-5,"MEAN_MOTION_DOT":-1.235e-5,"MEAN_MOTION_DDOT":0}]
